{
  "norad_id": 36828,
  "name": "BEIDOU-2 IGSO-1",
  "history": [
    {
      "epoch": "2026-03-19T22:41:52.146816Z",
      "apogee_km": 36024.99783784909,
      "perigee_km": 35561.492178198896,
      "latitude_deg": 53.72541325654561,
      "longitude_deg": 108.31691800774367,
      "height_km": 35924.852847621885,
      "semi_major_axis_km": 42171.382008024,
      "eccentricity": 0.0054955,
      "inclination_deg": 54.2916,
      "raan_deg": 163.7709,
      "arg_perigee_deg": 219.8858,
      "mean_anomaly_deg": 238.0541,
      "mean_motion_rev_day": 1.00248068
    }
  ]
}